{"type":"FeatureCollection","schema_version":"satim.landscape.segmentation.v0.1","fixture_id":"SATIM-LANDSCAPE-C654-001","coordinate_system":"IMAGE_PIXEL_XY_ORIGIN_TOP_LEFT","image":{"width_px":1001,"height_px":1536,"sha256":"a8b08e249f6ede4048563c892aba9b1ae6edb5e6d1c2f849421a3d8c285a9030"},"annotation_status":"PROVISIONAL_HUMAN_ANNOTATION","segmentation_completeness":"FIELD_INSTANCES_BOUNDED; SUPPORTING_CLASS_POLYGONS_PARTIAL","field_instance_count":7,"known_omissions":["FOREST_MATRIX_FULL_PIXEL_MASK","LOW_VEGETATION_COMPLETE_MASK","ACCESS_PATH_GEOMETRY"],"features":[{"type":"Feature","id":"FIELD_01","properties":{"class":"CULTIVATED_FIELD","label_status":"PROVISIONAL_HUMAN_ANNOTATION","identity_scope":"VISIBLE_SURFACE_ONLY","area_px2":9670.5,"bbox_px":[260.0,249.0,341.0,392.0]},"geometry":{"type":"Polygon","coordinates":[[[267,261],[321,249],[341,283],[337,386],[286,392],[260,358],[267,261]]]}},{"type":"Feature","id":"FIELD_02","properties":{"class":"CULTIVATED_FIELD","label_status":"PROVISIONAL_HUMAN_ANNOTATION","identity_scope":"VISIBLE_SURFACE_ONLY","area_px2":12292.0,"bbox_px":[247.0,391.0,353.0,520.0]},"geometry":{"type":"Polygon","coordinates":[[[259,398],[339,391],[353,421],[353,519],[261,520],[247,490],[259,398]]]}},{"type":"Feature","id":"FIELD_03","properties":{"class":"CULTIVATED_FIELD","label_status":"PROVISIONAL_HUMAN_ANNOTATION","identity_scope":"VISIBLE_SURFACE_ONLY","area_px2":13293.5,"bbox_px":[253.0,520.0,392.0,640.0]},"geometry":{"type":"Polygon","coordinates":[[[264,525],[346,520],[392,548],[381,622],[296,640],[253,610],[264,525]]]}},{"type":"Feature","id":"FIELD_04","properties":{"class":"CULTIVATED_FIELD","label_status":"PROVISIONAL_HUMAN_ANNOTATION","identity_scope":"VISIBLE_SURFACE_ONLY","area_px2":17569.0,"bbox_px":[267.0,635.0,529.0,716.0]},"geometry":{"type":"Polygon","coordinates":[[[280,641],[475,635],[529,664],[511,709],[320,716],[267,690],[280,641]]]}},{"type":"Feature","id":"FIELD_05","properties":{"class":"CULTIVATED_FIELD","label_status":"PROVISIONAL_HUMAN_ANNOTATION","identity_scope":"VISIBLE_SURFACE_ONLY","area_px2":11681.5,"bbox_px":[274.0,718.0,407.0,833.0]},"geometry":{"type":"Polygon","coordinates":[[[282,724],[391,718],[407,759],[371,820],[302,833],[274,787],[282,724]]]}},{"type":"Feature","id":"FIELD_06","properties":{"class":"CULTIVATED_FIELD","label_status":"PROVISIONAL_HUMAN_ANNOTATION","identity_scope":"VISIBLE_SURFACE_ONLY","area_px2":24045.5,"bbox_px":[403.0,780.0,558.0,975.0]},"geometry":{"type":"Polygon","coordinates":[[[406,800],[526,780],[558,819],[552,925],[500,975],[403,930],[406,800]]]}},{"type":"Feature","id":"FIELD_07","properties":{"class":"CULTIVATED_FIELD","label_status":"PROVISIONAL_HUMAN_ANNOTATION","identity_scope":"VISIBLE_SURFACE_ONLY","area_px2":21060.0,"bbox_px":[565.0,735.0,728.0,904.0]},"geometry":{"type":"Polygon","coordinates":[[[565,759],[683,735],[728,779],[708,875],[620,904],[565,858],[565,759]]]}},{"type":"Feature","id":"ROW_01","properties":{"class":"ROW_TEXTURE","label_status":"PROVISIONAL_HUMAN_ANNOTATION","identity_scope":"VISIBLE_SURFACE_ONLY","area_px2":6116.5,"bbox_px":[274.0,260.0,331.0,387.0]},"geometry":{"type":"Polygon","coordinates":[[[282,266],[322,260],[331,286],[328,383],[290,387],[274,357],[282,266]]]}},{"type":"Feature","id":"ROW_02","properties":{"class":"ROW_TEXTURE","label_status":"PROVISIONAL_HUMAN_ANNOTATION","identity_scope":"VISIBLE_SURFACE_ONLY","area_px2":9047.5,"bbox_px":[257.0,399.0,344.0,512.0]},"geometry":{"type":"Polygon","coordinates":[[[265,403],[337,399],[344,426],[344,511],[268,512],[257,486],[265,403]]]}},{"type":"Feature","id":"ROW_03","properties":{"class":"ROW_TEXTURE","label_status":"PROVISIONAL_HUMAN_ANNOTATION","identity_scope":"VISIBLE_SURFACE_ONLY","area_px2":8927.0,"bbox_px":[266.0,527.0,380.0,626.0]},"geometry":{"type":"Polygon","coordinates":[[[278,532],[344,527],[380,548],[370,612],[300,626],[266,604],[278,532]]]}},{"type":"Feature","id":"ROW_04","properties":{"class":"ROW_TEXTURE","label_status":"PROVISIONAL_HUMAN_ANNOTATION","identity_scope":"VISIBLE_SURFACE_ONLY","area_px2":10963.0,"bbox_px":[279.0,647.0,515.0,706.0]},"geometry":{"type":"Polygon","coordinates":[[[291,652],[465,647],[515,667],[499,696],[326,706],[279,684],[291,652]]]}},{"type":"Feature","id":"ROW_05","properties":{"class":"ROW_TEXTURE","label_status":"PROVISIONAL_HUMAN_ANNOTATION","identity_scope":"VISIBLE_SURFACE_ONLY","area_px2":7714.5,"bbox_px":[286.0,724.0,396.0,820.0]},"geometry":{"type":"Polygon","coordinates":[[[293,732],[382,724],[396,756],[362,808],[310,820],[286,785],[293,732]]]}},{"type":"Feature","id":"ROW_06","properties":{"class":"ROW_TEXTURE","label_status":"PROVISIONAL_HUMAN_ANNOTATION","identity_scope":"VISIBLE_SURFACE_ONLY","area_px2":16468.0,"bbox_px":[419.0,793.0,548.0,956.0]},"geometry":{"type":"Polygon","coordinates":[[[419,816],[518,793],[548,825],[542,912],[502,956],[419,919],[419,816]]]}},{"type":"Feature","id":"ROW_07","properties":{"class":"ROW_TEXTURE","label_status":"PROVISIONAL_HUMAN_ANNOTATION","identity_scope":"VISIBLE_SURFACE_ONLY","area_px2":14819.5,"bbox_px":[577.0,747.0,714.0,892.0]},"geometry":{"type":"Polygon","coordinates":[[[577,769],[675,747],[714,782],[696,862],[625,892],[577,852],[577,769]]]}},{"type":"Feature","id":"BARE_02","properties":{"class":"BARE_WORKED_SOIL","label_status":"PROVISIONAL_HUMAN_ANNOTATION","identity_scope":"VISIBLE_SURFACE_ONLY","area_px2":12292.0,"bbox_px":[247.0,391.0,353.0,520.0]},"geometry":{"type":"Polygon","coordinates":[[[259,398],[339,391],[353,421],[353,519],[261,520],[247,490],[259,398]]]}},{"type":"Feature","id":"BARE_04","properties":{"class":"BARE_WORKED_SOIL","label_status":"PROVISIONAL_HUMAN_ANNOTATION","identity_scope":"VISIBLE_SURFACE_ONLY","area_px2":17569.0,"bbox_px":[267.0,635.0,529.0,716.0]},"geometry":{"type":"Polygon","coordinates":[[[280,641],[475,635],[529,664],[511,709],[320,716],[267,690],[280,641]]]}},{"type":"Feature","id":"BARE_07","properties":{"class":"BARE_WORKED_SOIL","label_status":"PROVISIONAL_HUMAN_ANNOTATION","identity_scope":"VISIBLE_SURFACE_ONLY","area_px2":21060.0,"bbox_px":[565.0,735.0,728.0,904.0]},"geometry":{"type":"Polygon","coordinates":[[[565,759],[683,735],[728,779],[708,875],[620,904],[565,858],[565,759]]]}},{"type":"Feature","id":"BRIGHT_03","properties":{"class":"BRIGHT_COVER_CANDIDATE","label_status":"PROVISIONAL_HUMAN_ANNOTATION","identity_scope":"VISIBLE_SURFACE_ONLY","area_px2":9356.5,"bbox_px":[261.0,527.0,385.0,625.0]},"geometry":{"type":"Polygon","coordinates":[[[274,535],[353,527],[385,553],[373,610],[296,625],[261,600],[274,535]]]}}]}